NORAD_CAT_ID,OBJECT_NAME,OBJECT_TYPE,EPOCH,MEAN_MOTION,ECCENTRICITY,INCLINATION,RA_OF_ASC_NODE,ARG_OF_PERICENTER,MEAN_ANOMALY,BSTAR,MEAN_MOTION_DOT,MEAN_MOTION_DDOT,TLE_LINE0,TLE_LINE1,TLE_LINE2,SEMIMAJOR_AXIS,PERIOD,APOGEE,PERIGEE,DECAYED
52120.0,STARLINK-3534,PAYLOAD,2023-04-10 21:55:57,15.08841946,0.0001146,53.2176,174.5967,87.2956,272.8167,0.00013034,1.787e-05,0.0,0 STARLINK-3534,1 52120U 22029AJ  23100.91385427  .00001787  00000-0  13034-3 0  9997,2 52120  53.2176 174.5967 0001146  87.2956 272.8167 15.08841946 60201,6917.874,95.437,540.532,538.947,0.0
52120.0,STARLINK-3534,PAYLOAD,2023-04-11 05:52:52,15.0884756,0.0001454,53.2182,173.1113,85.9665,274.1493,0.00017764,2.541e-05,0.0,0 STARLINK-3534,1 52120U 22029AJ  23101.24505137  .00002541  00000-0  17764-3 0  9999,2 52120  53.2182 173.1113 0001454  85.9665 274.1493 15.08847560 60250,6917.857,95.437,540.728,538.716,0.0
52120.0,STARLINK-3534,PAYLOAD,2023-04-11 12:14:24,15.08856224,0.0001476,53.2166,171.9208,82.4313,277.6846,0.00030592,4.586e-05,0.0,0 STARLINK-3534,1 52120U 22029AJ  23101.51000727  .00004586  00000-0  30592-3 0  9999,2 52120  53.2166 171.9208 0001476  82.4313 277.6846 15.08856224 60290,6917.831,95.437,540.717,538.675,0.0
52120.0,STARLINK-3534,PAYLOAD,2023-04-12 04:08:16,15.08839906,0.0001628,53.2148,168.9486,77.2762,282.8412,7.6942e-05,9.37e-06,0.0,0 STARLINK-3534,1 52120U 22029AJ  23102.17241347  .00000937  00000-0  76942-4 0  9993,2 52120  53.2148 168.9486 0001628  77.2762 282.8412 15.08839906 60399,6917.881,95.438,540.872,538.619,0.0
52120.0,STARLINK-3534,PAYLOAD,2023-04-12 12:05:12,15.08833251,0.0001508,53.2165,167.4609,75.1002,285.0157,-2.87e-05,-7.45e-06,0.0,0 STARLINK-3534,1 52120U 22029AJ  23102.50361831 -.00000745  00000-0 -28700-4 0  9999,2 52120  53.2165 167.4609 0001508  75.1002 285.0157 15.08833251 60444,6917.901,95.438,540.809,538.723,0.0
52120.0,STARLINK-3534,PAYLOAD,2023-04-13 10:20:36,15.08845906,0.0001469,53.2159,163.2956,76.8205,283.2951,-1.0177e-05,-4.5e-06,0.0,0 STARLINK-3534,1 52120U 22029AJ  23103.43097598 -.00000450  00000-0 -10177-4 0  9990,2 52120  53.2159 163.2956 0001469  76.8205 283.2951 15.08845906 60582,6917.862,95.437,540.744,538.711,0.0
52120.0,STARLINK-3534,PAYLOAD,2023-04-13 15:06:45,15.08850248,0.0001492,53.2155,162.4036,75.4845,284.6313,3.5295e-05,2.74e-06,0.0,0 STARLINK-3534,1 52120U 22029AJ  23103.62969165  .00000274  00000-0  35295-4 0  9999,2 52120  53.2155 162.4036 0001492  75.4845 284.6313 15.08850248 60615,6917.849,95.437,540.746,538.682,0.0
52120.0,STARLINK-3534,PAYLOAD,2023-04-14 03:49:51,15.08834441,0.0001399,53.2148,160.0251,77.5488,282.5661,0.00015224,2.135e-05,0.0,0 STARLINK-3534,1 52120U 22029AJ  23104.15962218  .00002135  00000-0  15224-3 0  9997,2 52120  53.2148 160.0251 0001399  77.5488 282.5661 15.08834441 60690,6917.897,95.438,540.73,538.795,0.0
52120.0,STARLINK-3534,PAYLOAD,2023-04-14 10:11:23,15.08840656,0.000161,53.2149,158.8369,68.3423,291.774,0.00020859,3.033e-05,0.0,0 STARLINK-3534,1 52120U 22029AJ  23104.42458066  .00003033  00000-0  20859-3 0  9996,2 52120  53.2149 158.8369 0001610  68.3423 291.7740 15.08840656 60739,6917.878,95.438,540.857,538.63,0.0
52120.0,STARLINK-3534,PAYLOAD,2023-04-14 14:57:32,15.0885069,0.0001518,53.2149,157.944,73.7986,286.3173,0.00033637,5.071e-05,0.0,0 STARLINK-3534,1 52120U 22029AJ  23104.62329529  .00005071  00000-0  33637-3 0  9991,2 52120  53.2149 157.9440 0001518  73.7986 286.3173 15.08850690 60762,6917.848,95.437,540.763,538.663,0.0
52120.0,STARLINK-3534,PAYLOAD,2023-04-15 10:02:10,15.08845557,0.0001455,53.2151,154.3782,71.9489,288.1661,0.00014933,2.09e-05,0.0,0 STARLINK-3534,1 52120U 22029AJ  23105.41817794  .00002090  00000-0  14933-3 0  9991,2 52120  53.2151 154.3782 0001455  71.9489 288.1661 15.08845557 60884,6917.863,95.437,540.735,538.722,0.0
52120.0,STARLINK-3534,PAYLOAD,2023-04-15 14:48:19,15.08852904,0.0001397,53.2152,153.4796,95.1876,264.9275,0.00027206,4.046e-05,0.0,0 STARLINK-3534,1 52120U 22029AJ  23105.61689246  .00004046  00000-0  27206-3 0  9992,2 52120  53.2152 153.4796 0001397  95.1876 264.9275 15.08852904 60914,6917.841,95.437,540.672,538.74,0.0
52120.0,STARLINK-3534,PAYLOAD,2023-04-16 09:52:56,15.08851223,0.0001498,53.2156,149.9125,95.4813,264.635,0.00013264,1.824e-05,0.0,0 STARLINK-3534,1 52120U 22029AJ  23106.41176981  .00001824  00000-0  13264-3 0  9998,2 52120  53.2156 149.9125 0001498  95.4813 264.6350 15.08851223 61038,6917.846,95.437,540.747,538.675,0.0
52120.0,STARLINK-3534,PAYLOAD,2023-04-16 13:03:43,15.08853917,0.000156,53.2157,149.3171,100.6295,259.4873,0.00021922,3.204e-05,0.0,0 STARLINK-3534,1 52120U 22029AJ  23106.54424789  .00003204  00000-0  21922-3 0  9998,2 52120  53.2157 149.3171 0001560 100.6295 259.4873 15.08853917 61053,6917.838,95.437,540.782,538.624,0.0
52120.0,STARLINK-3534,PAYLOAD,2023-04-16 19:25:16,15.08825495,0.0001376,53.2154,148.1304,103.3365,256.778,-0.00035473,-5.927e-05,0.0,0 STARLINK-3534,1 52120U 22029AJ  23106.80921803 -.00005927  00000-0 -35473-3 0  9998,2 52120  53.2154 148.1304 0001376 103.3365 256.7780 15.08825495 61099,6917.925,95.438,540.742,538.838,0.0
52120.0,STARLINK-3534,PAYLOAD,2023-04-17 11:19:07,15.08832906,0.0001216,53.2153,145.1562,99.0059,261.1071,-4.2422e-05,-9.63e-06,0.0,0 STARLINK-3534,1 52120U 22029AJ  23107.47161823 -.00000963  00000-0 -42422-4 0  9998,2 52120  53.2153 145.1562 0001216  99.0059 261.1071 15.08832906 61194,6917.902,95.438,540.608,538.926,0.0
52120.0,STARLINK-3534,PAYLOAD,2023-04-17 19:16:03,15.08831683,0.000122,53.2156,143.6703,98.0909,262.0222,0.00025417,3.759e-05,0.0,0 STARLINK-3534,1 52120U 22029AJ  23107.80282219  .00003759  00000-0  25417-3 0  9996,2 52120  53.2156 143.6703 0001220  98.0909 262.0222 15.08831683 61240,6917.906,95.438,540.615,538.927,0.0
52120.0,STARLINK-3534,PAYLOAD,2023-04-18 09:34:32,15.08845704,0.000105,53.2139,140.9921,84.1581,275.9531,0.00076547,0.00011917,0.0,0 STARLINK-3534,1 52120U 22029AJ  23108.39898311  .00011917  00000-0  76547-3 0  9992,2 52120  53.2139 140.9921 0001050  84.1581 275.9531 15.08845704 61331,6917.863,95.437,540.454,539.002,0.0
52120.0,STARLINK-3534,PAYLOAD,2023-04-18 19:06:50,15.08850457,4.94e-05,53.2142,139.2107,242.6148,117.4794,0.0004541,6.949e-05,0.0,0 STARLINK-3534,1 52120U 22029AJ  23108.79641530  .00006949  00000-0  45410-3 0  9999,2 52120  53.2142 139.2107 0000494 242.6148 117.4794 15.08850457 61391,6917.848,95.437,540.055,539.372,0.0
52120.0,STARLINK-3534,PAYLOAD,2023-04-19 09:25:19,15.08843386,0.0001076,53.2139,136.5332,82.7326,277.3789,0.00034576,5.22e-05,0.0,0 STARLINK-3534,1 52120U 22029AJ  23109.39258347  .00005220  00000-0  34576-3 0  9998,2 52120  53.2139 136.5332 0001076  82.7326 277.3789 15.08843386 61488,6917.87,95.437,540.479,538.991,0.0
52120.0,STARLINK-3534,PAYLOAD,2023-04-19 18:57:38,15.0884018,0.0001254,53.2146,134.7505,72.6765,287.4365,0.00078356,0.00012204,0.0,0 STARLINK-3534,1 52120U 22029AJ  23109.79002588  .00012204  00000-0  78356-3 0  9990,2 52120  53.2146 134.7505 0001254  72.6765 287.4365 15.08840180 61549,6917.88,95.438,540.612,538.877,0.0
52120.0,STARLINK-3534,PAYLOAD,2023-04-20 10:51:29,15.08841574,0.000116,53.2132,131.7738,83.4994,276.613,0.00075786,0.00011794,0.0,0 STARLINK-3534,1 52120U 22029AJ  23110.45242665  .00011794  00000-0  75786-3 0  9994,2 52120  53.2132 131.7738 0001160  83.4994 276.6130 15.08841574 61648,6917.876,95.437,540.543,538.938,0.0
52120.0,STARLINK-3534,PAYLOAD,2023-04-20 18:48:25,15.08836495,0.000104,53.2144,130.2857,98.9315,261.1795,0.0004787,7.338e-05,0.0,0 STARLINK-3534,1 52120U 22029AJ  23110.78362807  .00007338  00000-0  47870-3 0  9993,2 52120  53.2144 130.2857 0001040  98.9315 261.1795 15.08836495 61699,6917.891,95.438,540.476,539.037,0.0
52120.0,STARLINK-3534,PAYLOAD,2023-04-21 12:17:40,15.08839005,0.0001498,53.2135,127.0163,79.2926,280.8234,0.00024642,3.636e-05,0.0,0 STARLINK-3534,1 52120U 22029AJ  23111.51227152  .00003636  00000-0  24642-3 0  9997,2 52120  53.2135 127.0163 0001498  79.2926 280.8234 15.08839005 61809,6917.883,95.438,540.785,538.712,0.0
52120.0,STARLINK-3534,PAYLOAD,2023-04-21 18:39:12,15.08844057,0.0001423,53.2138,125.827,78.691,281.4242,0.00032229,4.846e-05,0.0,0 STARLINK-3534,1 52120U 22029AJ  23111.77723044  .00004846  00000-0  32229-3 0  9990,2 52120  53.2138 125.8270 0001423  78.6910 281.4242 15.08844057 61844,6917.868,95.437,540.717,538.749,0.0
52120.0,STARLINK-3534,PAYLOAD,2023-04-22 12:08:26,15.08858392,0.0001362,53.2146,122.555,89.3229,270.792,0.00053306,8.21e-05,0.0,0 STARLINK-3534,1 52120U 22029AJ  23112.50586323  .00008210  00000-0  53306-3 0  9997,2 52120  53.2146 122.5550 0001362  89.3229 270.7920 15.08858392 61955,6917.824,95.436,540.631,538.747,0.0
52120.0,STARLINK-3534,PAYLOAD,2023-04-23 11:59:11,15.0887763,0.0001352,53.2152,118.0937,90.7396,269.3751,0.00056885,8.786e-05,0.0,0 STARLINK-3534,1 52120U 22029AJ  23113.49944323  .00008786  00000-0  56885-3 0  9997,2 52120  53.2152 118.0937 0001352  90.7396 269.3751 15.08877630 62101,6917.765,95.435,540.566,538.695,0.0
52120.0,STARLINK-3534,PAYLOAD,2023-04-24 11:49:58,15.08861697,0.0001108,53.2155,113.6336,118.1542,241.9563,0.00058534,9.046e-05,0.0,0 STARLINK-3534,1 52120U 22029AJ  23114.49304311  .00009046  00000-0  58534-3 0  9998,2 52120  53.2155 113.6336 0001108 118.1542 241.9563 15.08861697 62254,6917.814,95.436,540.446,538.913,0.0
52120.0,STARLINK-3534,PAYLOAD,2023-04-24 16:36:08,15.08836592,0.0001574,53.2156,112.7411,101.7586,258.3583,-3.2503e-05,-8.05e-06,0.0,0 STARLINK-3534,1 52120U 22029AJ  23114.69176738 -.00000805  00000-0 -32503-4 0  9995,2 52120  53.2156 112.7411 0001574 101.7586 258.3583 15.08836592 62285,6917.891,95.438,540.845,538.667,0.0
52120.0,STARLINK-3534,PAYLOAD,2023-04-25 03:43:51,15.08813146,0.0001358,53.2154,110.6585,106.6391,253.475,0.00028199,4.2e-05,0.0,0 STARLINK-3534,1 52120U 22029AJ  23115.15546015  .00004200  00000-0  28199-3 0  9992,2 52120  53.2154 110.6585 0001358 106.6391 253.4750 15.08813146 62350,6917.962,95.439,540.767,538.888,0.0
